#dP2024  5  8  6  0  0.00000000      96 __u+U IGS20 EXT  IAC
## 2313 280800.00000000   900.00000000 60438 0.2500000000000
+  119   C06C07C08C09C10C11C12C13C14C16C19C20C21C22C23C24C25
+        C26C27C28C29C30C32C33C34C35C36C37C38C39C40C41C42C43
+        C44C45C46E02E03E04E05E07E08E09E10E11E12E13E14E15E18
+        E19E21E24E25E26E27E30E31E33E34E36G02G03G04G05G06G07
+        G08G09G10G11G12G13G14G15G16G17G18G19G20G21G22G23G24
+        G25G26G27G28G29G30G31G32J02J03J04R01R02R03R04R05R07
+        R08R09R11R12R13R14R15R16R17R18R19R20R21R22R24R25R26
++        11 10  8 10 10  9  8  9  9 11  8  9  8  8 10  9  8
++         9  8  8  8  8  8  9  9  9 10  9 10 10 10  9  8 10
++         8  8  8  9  7  8  7  8  8  8  9  9  8  8  8  7  8
++         7  7  9  8  9  7  9  8  9  7  8  9  8  8  8  8  7
++         7  8 13  8  8  8  9  8  8  7  7  7  7  9  8  8  9
++         8  8 10  8  8  7  8  8 11  9  9  8  8  8  9  8  9
++         9  8  7  9  8  8  8  7  8  8  8  9  9  8  8  8  8
%c M  cc GPS ccc cccc cccc cccc cccc ccccc ccccc ccccc ccccc
%c cc cc ccc ccc cccc cccc cccc cccc ccccc ccccc ccccc ccccc
%f  0.0000000  0.000000000  0.00000000000  0.000000000000000
%f  0.0000000  0.000000000  0.00000000000  0.000000000000000
%i    0    0    0    0      0      0      0      0         0
%i    0    0    0    0      0      0      0      0         0
/* IAC                                ULTRA-RAPID PREDICTION
/* S/V CLOCKS ARE ALIGNED TO GNSS TIME                      
/* G:C1WC2W R:C1PC2P E:C1XC5X C:C2IC6I J:C1CC2S             
/* PCV:IGS20_2290 OL/AL:FES2004  NONE     YN ORB:CoN CLK:CoN
*  2024 05 08 14 45  0.00000000
PC06  -4269.382725  39823.654412  13709.823263    405.911450
PC07  -9672.991220  26041.744840 -31653.468494   -748.564325
PC08 -20626.974576  31355.851162  19001.966744    -95.615061
PC09  -1175.099409  41931.546343   7340.263150   -872.201017
PC10   -153.462595  27799.770911 -31315.863215     29.030510
PC11 -15527.480424   3191.595201 -22905.376693    552.025654
PC12 -18568.693762 -16210.613981 -13052.284980   -242.959064
PC13 -13347.135475  31764.539554  24271.536197    434.717940
PC14 -26385.595992   5048.081312   7698.123842    832.938859
PC16  -7188.386353  37737.361867  18075.238795   -508.184757
PC19  20590.245589 -10387.966507 -15661.121514   -912.978197
PC20  27882.469439    124.518369   -170.866416   -442.443326
PC21 -18917.375828 -11603.627090 -16924.896139   -966.074052
PC22    987.428814 -15593.719198 -23121.654974    -11.868672
PC23  -7329.442143  25370.341940  -9014.479044   -778.124418
PC24 -18559.904297   2068.484054  20719.228754    926.996956
PC25 -17734.194772  19951.421407   8094.665820    394.618664
PC26  -8489.235805 -16083.821708  21157.196607   -288.380361
PC27  16255.463242  22152.041134   4885.070313    309.985961
PC28   5530.971818  25215.932137 -10597.165806    237.497024
PC29  10571.542751 -12918.943270  22352.771734    278.666503
PC30  19627.761956   7139.494864  18504.836804    -72.536021
PC32  18865.962900  11529.117892  17028.178271   -618.565833
PC33 -20636.321667  10509.043093  15596.465924   -966.304011
PC34 -19338.738061  -5405.870570 -19387.255053    429.243618
PC35  -6207.610226 -24939.277313  10811.664690    368.121285
PC36  18215.464153 -19497.648651  -8164.504776     75.384749
PC37   7999.003935  16408.178844 -21091.032805   -970.493686
PC38 -24258.364866  32340.375300  11809.646958    153.842216
PC39  -8046.858594  35121.415698  22165.353790     -8.278457
PC40 -13944.127286  19598.152071 -34669.549569    -69.183825
PC41  -2013.200878  15627.143602  23088.819366   -942.877662
PC42 -27867.560058  -1104.172869  -1425.283394   -442.745530
PC43 -11340.608886  12114.713806 -22452.590473     70.900704
PC44 -17083.717438 -21530.462252  -4758.188347    467.177785
PC45   7537.278496 -25341.666123   8960.914074    -84.584411
PC46  18725.957922  -2904.111451 -20500.966186   -146.504410
PE02  13349.180179  11748.627932 -23672.067982    125.759799
PE03  20986.254706  19821.307376   6509.249534   -112.397417
PE04 -25934.584505  -7290.145257  12287.725346   -392.146198
PE05   3836.846937  20445.467846  21064.561428   4745.812905
PE07  15959.332292  -8832.855289 -23296.936211   -118.967888
PE08  26005.986337   8022.619418 -11613.005863   -267.451321
PE09 -15998.490335   8627.572567  23373.795468   -435.480423
PE10 -15672.970069   9630.949507 -23199.904427   -623.211748
PE11 -12866.264770  20241.629002 -17373.473696   2904.394640
PE12 -16018.993386  -1274.761712 -24865.979914  -1029.214189
PE13  13017.325575 -19710.018493  17829.513242    -21.462154
PE14  12619.883575 -10334.312984  18572.569911     29.945129
PE15  15882.343143   1953.243835  24902.873542   -101.678764
PE18 -22296.960947   6118.776747 -21437.677154     87.678888
PE19 -19585.199212 -20543.695025  -8394.156193   -100.733731
PE21   6996.489069 -19486.175296  21149.849412   -593.411323
PE24 -24234.224484  15937.713587  -5879.271345   -751.035044
PE25  -7436.649912  19542.269284 -20949.618461      4.260867
PE26   2227.205811 -29513.376135   -120.804573    448.462822
PE27  24053.766709 -16126.636419   6137.492721   -344.198875
PE30  26704.875821  -3084.306044 -12412.739194   -279.169747
PE31 -26717.877114   3297.273451  12311.791909    -22.941326
PE33  -9122.948585 -22525.593269 -16899.593010     11.425688
PE34   9429.984889  22114.114244  17259.912583   -110.089272
PE36  -2604.679889  29489.790632   -471.286593   -224.255876
PG02  14088.428343  -9211.838888  20958.323173   -439.815058
PG03  23216.875980 -12732.934696   -988.237247    352.754583
PG04  17673.958591  -4192.759484 -19406.164822    356.529583
PG05 -22951.739648   2853.123213 -13315.637244   -171.970389
PG06  -5694.792565 -23528.536181 -10734.490719    283.528547
PG07   5729.194755 -24714.013845  -6475.643255   -124.459963
PG08  23403.116925   3650.096611  12326.587054    167.096812
PG09   5707.712067 -14358.500569 -21678.838964    188.830775
PG10   2122.507219  15238.733183  21813.428480    -19.788006
PG11 -12316.335922 -13169.957397 -19496.492041   -657.052866
PG12 -24401.690443  10395.140571    329.356713   -503.557218
PG13 -22240.002993 -13046.573800   6656.541386    648.916120
PG14   2182.930741 -17197.177399  20099.775592    395.726308
PG15 -23647.083349   -933.274956  11753.981380    156.827649
PG16  21720.275381   2800.711140 -15673.690679   -296.942036
PG17  -6898.430296 -19463.084071  17034.525057    707.865177
PG18  -5803.451173  25045.313521  -6236.260975   -607.424402
PG19 -15293.200898 -19989.397503   8892.251237    479.193424
PG20 -16617.392979  -5089.484868 -19983.869758    377.325503
PG21  15243.298664  -2498.409992  21991.865901    122.816328
PG22  -5772.533396 -14266.432486  22068.512547    -10.750142
PG23 -10585.838552  18238.828921  16049.564574    220.357328
PG24 -14756.662644   7111.267341  20421.430482   -467.662679
PG25 -18909.481288  16784.251242  -8017.563260    495.347285
PG26  11959.486163  11065.224860 -21165.698568    155.833874
PG27  23334.699301  12964.406026   2010.665809    -22.967309
PG28   5447.268755  24677.229647  -8190.511467   -235.375709
PG29  -9259.242681  11816.325895 -21964.312739   -599.181732
PG30  -1575.547093 -26121.105971   3735.470940   -393.527453
PG31  10939.607438  17226.590856 -16998.829985   -227.885806
PG32  10802.796941  19208.944379  15179.570229   -618.374983
PJ02 -35041.160838  19216.135442  -8843.947754     -0.112938
PJ03 -20168.446085  28352.186200 -19197.808622      0.143259
PJ04 -28320.992071  27472.867608  20878.819292     50.350552
PR01   -828.863431 -11164.011966 -22915.597215     84.757305
PR02 -17754.859889 -10625.977833 -14824.860515    -22.899046
PR03 -25112.635252  -3926.227843   1829.741819     99.759330
PR04 -18506.781208   4321.639856  17043.554654    235.496988
PR05  -2058.462221  10515.450680  23164.419073    131.200686
PR07  25141.319233   3632.961096  -2523.836441     81.945715
PR08  18358.917393  -4605.451953 -17050.124841    -75.369833
PR09   5104.723613  11259.556232 -22303.504309    185.419601
PR11  18187.751109 -16429.897699  -7021.032162     25.409173
PR12   9573.773043 -20253.617646  12234.197043     39.900967
PR13  -2771.025985 -12997.397673  21760.275472    -47.180999
PR14 -15887.119577   4175.925944  19535.601416     26.453138
PR15 -18106.605431  17119.594224   5495.263658     80.016411
PR16  -9750.772153  20302.483082 -12001.014602     25.408803
PR17 -12647.610418  -7566.624918 -20827.960616     84.964250
PR18  -7445.549064   9755.864875 -22361.140465    141.042197
PR19   -193.175385  21382.278933 -13913.600504   -275.896586
PR20   9752.654944  22595.342429   6796.231514   -112.474136
PR21  12512.396931   7759.194589  20817.177869    -99.163249
PR22   7603.134353 -10732.728077  21874.599253    113.196023
PR24 -11026.191092 -21833.392408  -7252.057012    -54.989966
PR25  12567.628717   7673.718168  20824.983483    -34.426222
PR26  19171.933294  -4181.078601 -16256.959098    -20.767905
EOF
